GLOBALSTAR M084         
1 38040U 11080A   24181.95024628 -.00000093  00000+0  61048-4 0  9992
2 38040  52.0023  40.8110 0000941  58.8016  48.7429 12.62263873578188
GLOBALSTAR M080         
1 38041U 11080B   24181.92864417 -.00000088  00000+0  85744-4 0  9991
2 38041  52.0076  42.3594 0000781  44.9228  84.8420 12.62262369578308
GLOBALSTAR M082         
1 38042U 11080C   24181.94967597 -.00000086  00000+0  10011-3 0  9999
2 38042  52.0092 357.7053 0001351 111.6752  53.0761 12.62270759579015
GLOBALSTAR M092         
1 38043U 11080D   24181.90391965 -.00000099  00000+0  23967-4 0  9995
2 38043  52.0089  88.2003 0000764  53.8052  23.6221 12.62263059577466
GLOBALSTAR M090         
1 38044U 11080E   24181.80466701 -.00000092  00000+0  65654-4 0  9998
2 38044  51.9905 352.4096 0001031 108.7144 356.6434 12.62264374579110
GLOBALSTAR M086         
1 38045U 11080F   24181.73148642 -.00000082  00000+0  11917-3 0  9993
2 38045  51.9914 353.1547 0000317 187.0145 186.4682 12.62263783579057
GLOBALSTAR M097         
1 39072U 13005A   24181.91390114 -.00000096  00000+0  40803-4 0  9998
2 39072  52.0047 266.7938 0000658 155.9475 204.1422 12.62263975526323
GLOBALSTAR M093         
1 39073U 13005B   24181.64964431 -.00000077  00000+0  14702-3 0  9995
2 39073  51.9808 261.4637 0000718 169.7642 190.3239 12.62275586526245
